STARLINK-36922          
1 68123U 26044Y   26075.25003472 -.02005835  11745-2 -43950-2 0  9997
2 68123  97.2792  35.6530 0001685 103.6426  84.3046 15.98316359  2458
STARLINK-36938          
1 68124U 26044Z   26075.25003472 -.02018261  11902-2 -43896-2 0  9999
2 68124  97.2790  35.6540 0001599 104.1614  86.1946 15.98451676  2458
STARLINK-36839          
1 68125U 26044AA  26075.25003472 -.02004308  11710-2 -44240-2 0  9998
2 68125  97.2793  35.6522 0001588  99.7956  85.7842 15.98183712  2406
ECHOSTAR 25             
1 68126U 26045A   26070.41163374  .00000389  00000+0  64833-4 0  9991
2 68126  26.8991  70.3993 6209397 175.3735 195.5868  3.74430284    50
ICOR SV                 
1 68127U 26046A   26072.90953491  .00482503  92133-4  10434-2 0  9997
2 68127 123.0797 224.1306 0140888 188.2572 171.6170 15.82606913   290
FIREFLY ALPHA R/B       
1 68128U 26046B   26075.18832743  .00039803  00000+0  55897-3 0  9998
2 68128 123.0919 233.8193 0013691 349.0695  11.0066 15.56267550   654
GUOWANG GROUP 20 OBJECT*
1 68129U 26047A   26074.85619400 -.00000140  00000+0  71650-5 0  9996
2 68129  50.0055  45.3304 0009123 273.8381  86.1481 14.05944172   431
GUOWANG GROUP 20 OBJECT*
1 68130U 26047B   26074.92701706 -.00000142  00000+0  62052-5 0  9995
2 68130  50.0045  45.0404 0007766 268.9928  91.0087 14.06063631   433
SHIYAN-30 03            
1 68139U 26048A   26075.26473813  .00002773  00000+0  26547-3 0  9996
2 68139  34.9995 104.6388 0004718 328.8747  31.1678 14.92817071   485
SHIYAN-30 04            
1 68140U 26048B   26075.26535246  .00002472  00000+0  23885-3 0  9995
2 68140  34.9910 104.6476 0004390 322.2512  37.7885 14.92501728   487
CZ-2D R/B               
1 68141U 26048C   26075.25882660  .00001602  00000+0  14436-3 0  9996
2 68141  35.1291 104.7858 0015369  21.3756 338.7592 14.95521277   486
