CCSDS_OMM_VERS = 2.0
CREATION_DATE  = 
ORIGINATOR     = 

OBJECT_NAME    = STARLINK-36922
OBJECT_ID      = 2026-044Y
CENTER_NAME    = EARTH
REF_FRAME      = TEME
TIME_SYSTEM    = UTC
MEAN_ELEMENT_THEORY = SGP/SGP4

EPOCH          = 2026-03-16T06:00:02.999808
MEAN_MOTION    = 15.98316359
ECCENTRICITY   = .00016851
INCLINATION    = 97.2792
RA_OF_ASC_NODE = 35.6530
ARG_OF_PERICENTER = 103.6426
MEAN_ANOMALY   = 84.3046

EPHEMERIS_TYPE = 0
CLASSIFICATION_TYPE = U
NORAD_CAT_ID   = 68123
ELEMENT_SET_NO = 999
REV_AT_EPOCH   = 245
BSTAR          = -.43950164E-2
MEAN_MOTION_DOT = -.2005835E-1
MEAN_MOTION_DDOT = .11745015E-2

CCSDS_OMM_VERS = 2.0
CREATION_DATE  = 
ORIGINATOR     = 

OBJECT_NAME    = STARLINK-36938
OBJECT_ID      = 2026-044Z
CENTER_NAME    = EARTH
REF_FRAME      = TEME
TIME_SYSTEM    = UTC
MEAN_ELEMENT_THEORY = SGP/SGP4

EPOCH          = 2026-03-16T06:00:02.999808
MEAN_MOTION    = 15.98451676
ECCENTRICITY   = .00015996
INCLINATION    = 97.2790
RA_OF_ASC_NODE = 35.6540
ARG_OF_PERICENTER = 104.1614
MEAN_ANOMALY   = 86.1946

EPHEMERIS_TYPE = 0
CLASSIFICATION_TYPE = U
NORAD_CAT_ID   = 68124
ELEMENT_SET_NO = 999
REV_AT_EPOCH   = 245
BSTAR          = -.43895917E-2
MEAN_MOTION_DOT = -.2018261E-1
MEAN_MOTION_DDOT = .11902453E-2

CCSDS_OMM_VERS = 2.0
CREATION_DATE  = 
ORIGINATOR     = 

OBJECT_NAME    = STARLINK-36839
OBJECT_ID      = 2026-044AA
CENTER_NAME    = EARTH
REF_FRAME      = TEME
TIME_SYSTEM    = UTC
MEAN_ELEMENT_THEORY = SGP/SGP4

EPOCH          = 2026-03-16T06:00:02.999808
MEAN_MOTION    = 15.98183712
ECCENTRICITY   = .00015889
INCLINATION    = 97.2793
RA_OF_ASC_NODE = 35.6522
ARG_OF_PERICENTER = 99.7956
MEAN_ANOMALY   = 85.7842

EPHEMERIS_TYPE = 0
CLASSIFICATION_TYPE = U
NORAD_CAT_ID   = 68125
ELEMENT_SET_NO = 999
REV_AT_EPOCH   = 240
BSTAR          = -.44240274E-2
MEAN_MOTION_DOT = -.2004308E-1
MEAN_MOTION_DDOT = .11710116E-2

CCSDS_OMM_VERS = 2.0
CREATION_DATE  = 
ORIGINATOR     = 

OBJECT_NAME    = ECHOSTAR 25
OBJECT_ID      = 2026-045A
CENTER_NAME    = EARTH
REF_FRAME      = TEME
TIME_SYSTEM    = UTC
MEAN_ELEMENT_THEORY = SGP/SGP4

EPOCH          = 2026-03-11T09:52:45.155136
MEAN_MOTION    = 3.74430284
ECCENTRICITY   = .62093977
INCLINATION    = 26.8991
RA_OF_ASC_NODE = 70.3993
ARG_OF_PERICENTER = 175.3735
MEAN_ANOMALY   = 195.5868

EPHEMERIS_TYPE = 0
CLASSIFICATION_TYPE = U
NORAD_CAT_ID   = 68126
ELEMENT_SET_NO = 999
REV_AT_EPOCH   = 5
BSTAR          = .64832912E-4
MEAN_MOTION_DOT = .389E-5
MEAN_MOTION_DDOT = 0

CCSDS_OMM_VERS = 2.0
CREATION_DATE  = 
ORIGINATOR     = 

OBJECT_NAME    = ICOR SV
OBJECT_ID      = 2026-046A
CENTER_NAME    = EARTH
REF_FRAME      = TEME
TIME_SYSTEM    = UTC
MEAN_ELEMENT_THEORY = SGP/SGP4

EPOCH          = 2026-03-13T21:49:43.816224
MEAN_MOTION    = 15.82606913
ECCENTRICITY   = .0140888
INCLINATION    = 123.0797
RA_OF_ASC_NODE = 224.1306
ARG_OF_PERICENTER = 188.2572
MEAN_ANOMALY   = 171.6170

EPHEMERIS_TYPE = 0
CLASSIFICATION_TYPE = U
NORAD_CAT_ID   = 68127
ELEMENT_SET_NO = 999
REV_AT_EPOCH   = 29
BSTAR          = .10434E-2
MEAN_MOTION_DOT = .482503E-2
MEAN_MOTION_DDOT = .92133E-4

CCSDS_OMM_VERS = 2.0
CREATION_DATE  = 
ORIGINATOR     = 

OBJECT_NAME    = FIREFLY ALPHA R/B
OBJECT_ID      = 2026-046B
CENTER_NAME    = EARTH
REF_FRAME      = TEME
TIME_SYSTEM    = UTC
MEAN_ELEMENT_THEORY = SGP/SGP4

EPOCH          = 2026-03-16T04:31:11.489952
MEAN_MOTION    = 15.56267550
ECCENTRICITY   = .00136912
INCLINATION    = 123.0919
RA_OF_ASC_NODE = 233.8193
ARG_OF_PERICENTER = 349.0695
MEAN_ANOMALY   = 11.0066

EPHEMERIS_TYPE = 0
CLASSIFICATION_TYPE = U
NORAD_CAT_ID   = 68128
ELEMENT_SET_NO = 999
REV_AT_EPOCH   = 65
BSTAR          = .5589691E-3
MEAN_MOTION_DOT = .39803E-3
MEAN_MOTION_DDOT = 0

CCSDS_OMM_VERS = 2.0
CREATION_DATE  = 
ORIGINATOR     = 

OBJECT_NAME    = GUOWANG GROUP 20 OBJECT A
OBJECT_ID      = 2026-047A
CENTER_NAME    = EARTH
REF_FRAME      = TEME
TIME_SYSTEM    = UTC
MEAN_ELEMENT_THEORY = SGP/SGP4

EPOCH          = 2026-03-15T20:32:55.161600
MEAN_MOTION    = 14.05944172
ECCENTRICITY   = .00091239
INCLINATION    = 50.0055
RA_OF_ASC_NODE = 45.3304
ARG_OF_PERICENTER = 273.8381
MEAN_ANOMALY   = 86.1481

EPHEMERIS_TYPE = 0
CLASSIFICATION_TYPE = U
NORAD_CAT_ID   = 68129
ELEMENT_SET_NO = 999
REV_AT_EPOCH   = 43
BSTAR          = .7164951E-5
MEAN_MOTION_DOT = -.14E-5
MEAN_MOTION_DDOT = 0

CCSDS_OMM_VERS = 2.0
CREATION_DATE  = 
ORIGINATOR     = 

OBJECT_NAME    = GUOWANG GROUP 20 OBJECT B
OBJECT_ID      = 2026-047B
CENTER_NAME    = EARTH
REF_FRAME      = TEME
TIME_SYSTEM    = UTC
MEAN_ELEMENT_THEORY = SGP/SGP4

EPOCH          = 2026-03-15T22:14:54.273984
MEAN_MOTION    = 14.06063631
ECCENTRICITY   = .00077666
INCLINATION    = 50.0045
RA_OF_ASC_NODE = 45.0404
ARG_OF_PERICENTER = 268.9928
MEAN_ANOMALY   = 91.0087

EPHEMERIS_TYPE = 0
CLASSIFICATION_TYPE = U
NORAD_CAT_ID   = 68130
ELEMENT_SET_NO = 999
REV_AT_EPOCH   = 43
BSTAR          = .6205244E-5
MEAN_MOTION_DOT = -.142E-5
MEAN_MOTION_DDOT = 0

CCSDS_OMM_VERS = 2.0
CREATION_DATE  = 
ORIGINATOR     = 

OBJECT_NAME    = SHIYAN-30 03
OBJECT_ID      = 2026-048A
CENTER_NAME    = EARTH
REF_FRAME      = TEME
TIME_SYSTEM    = UTC
MEAN_ELEMENT_THEORY = SGP/SGP4

EPOCH          = 2026-03-16T06:21:13.374432
MEAN_MOTION    = 14.92817071
ECCENTRICITY   = .0004718
INCLINATION    = 34.9995
RA_OF_ASC_NODE = 104.6388
ARG_OF_PERICENTER = 328.8747
MEAN_ANOMALY   = 31.1678

EPHEMERIS_TYPE = 0
CLASSIFICATION_TYPE = U
NORAD_CAT_ID   = 68139
ELEMENT_SET_NO = 999
REV_AT_EPOCH   = 48
BSTAR          = .26546891E-3
MEAN_MOTION_DOT = .2773E-4
MEAN_MOTION_DDOT = 0

CCSDS_OMM_VERS = 2.0
CREATION_DATE  = 
ORIGINATOR     = 

OBJECT_NAME    = SHIYAN-30 04
OBJECT_ID      = 2026-048B
CENTER_NAME    = EARTH
REF_FRAME      = TEME
TIME_SYSTEM    = UTC
MEAN_ELEMENT_THEORY = SGP/SGP4

EPOCH          = 2026-03-16T06:22:06.452544
MEAN_MOTION    = 14.92501728
ECCENTRICITY   = .00043906
INCLINATION    = 34.9910
RA_OF_ASC_NODE = 104.6476
ARG_OF_PERICENTER = 322.2512
MEAN_ANOMALY   = 37.7885

EPHEMERIS_TYPE = 0
CLASSIFICATION_TYPE = U
NORAD_CAT_ID   = 68140
ELEMENT_SET_NO = 999
REV_AT_EPOCH   = 48
BSTAR          = .23884861E-3
MEAN_MOTION_DOT = .2472E-4
MEAN_MOTION_DDOT = 0

CCSDS_OMM_VERS = 2.0
CREATION_DATE  = 
ORIGINATOR     = 

OBJECT_NAME    = CZ-2D R/B
OBJECT_ID      = 2026-048C
CENTER_NAME    = EARTH
REF_FRAME      = TEME
TIME_SYSTEM    = UTC
MEAN_ELEMENT_THEORY = SGP/SGP4

EPOCH          = 2026-03-16T06:12:42.618240
MEAN_MOTION    = 14.95521277
ECCENTRICITY   = .0015369
INCLINATION    = 35.1291
RA_OF_ASC_NODE = 104.7858
ARG_OF_PERICENTER = 21.3756
MEAN_ANOMALY   = 338.7592

EPHEMERIS_TYPE = 0
CLASSIFICATION_TYPE = U
NORAD_CAT_ID   = 68141
ELEMENT_SET_NO = 999
REV_AT_EPOCH   = 48
BSTAR          = .14436114E-3
MEAN_MOTION_DOT = .1602E-4
MEAN_MOTION_DDOT = 0

